{
    "links": {
        "self": "http://www.neowsapp.com/rest/v1/neo/54095164?api_key=iIulBulltgU6a56xZRHN4H3l9WmuAYTsLGpBGhQ2"
    },
    "id": "54095164",
    "neo_reference_id": "54095164",
    "name": "(2020 WJ4)",
    "designation": "2020 WJ4",
    "nasa_jpl_url": "http://ssd.jpl.nasa.gov/sbdb.cgi?sstr=54095164",
    "absolute_magnitude_h": 20.895,
    "estimated_diameter": {
        "kilometers": {
            "estimated_diameter_min": 0.1760171467,
            "estimated_diameter_max": 0.3935863052
        },
        "meters": {
            "estimated_diameter_min": 176.0171466839,
            "estimated_diameter_max": 393.5863051908
        },
        "miles": {
            "estimated_diameter_min": 0.1093719505,
            "estimated_diameter_max": 0.244563116
        },
        "feet": {
            "estimated_diameter_min": 577.4840955265,
            "estimated_diameter_max": 1291.2936935222
        }
    },
    "is_potentially_hazardous_asteroid": false,
    "close_approach_data": [
        {
            "close_approach_date": "2021-01-13",
            "close_approach_date_full": "2021-Jan-13 21:08",
            "epoch_date_close_approach": 1610572080000,
            "relative_velocity": {
                "kilometers_per_second": "4.494098658",
                "kilometers_per_hour": "16178.7551689737",
                "miles_per_hour": "10052.8492881881"
            },
            "miss_distance": {
                "astronomical": "0.2979661919",
                "lunar": "115.9088486491",
                "kilometers": "44575107.640251253",
                "miles": "27697687.5288151714"
            },
            "orbiting_body": "Earth"
        }
    ],
    "orbital_data": {
        "orbit_id": "4",
        "orbit_determination_date": "2020-12-03 05:20:05",
        "first_observation_date": "2020-11-14",
        "last_observation_date": "2020-12-02",
        "data_arc_in_days": 18,
        "observations_used": 28,
        "orbit_uncertainty": "7",
        "minimum_orbit_intersection": ".237794",
        "jupiter_tisserand_invariant": "3.863",
        "epoch_osculation": "2459000.5",
        "eccentricity": ".3557786381449262",
        "semi_major_axis": "1.894217483993691",
        "inclination": "8.243386142631797",
        "ascending_node_longitude": "95.36620545415074",
        "orbital_period": "952.2329127418992",
        "perihelion_distance": "1.220295367188107",
        "perihelion_argument": "7.155384624701898",
        "aphelion_distance": "2.568139600799275",
        "perihelion_time": "2459206.296929305296",
        "mean_anomaly": "282.1966668463732",
        "mean_motion": ".378058766067433",
        "equinox": "J2000",
        "orbit_class": {
            "orbit_class_type": "AMO",
            "orbit_class_description": "Near-Earth asteroid orbits similar to that of 1221 Amor",
            "orbit_class_range": "1.017 AU < q (perihelion) < 1.3 AU"
        }
    },
    "is_sentry_object": false
}